{
  "norad_id": 68617,
  "name": "STARLINK-37186",
  "history": [
    {
      "epoch": "2026-04-16T20:38:25.892160Z",
      "apogee_km": 329.2065730395834,
      "perigee_km": 326.9324984033201,
      "latitude_deg": -4.894551001188252e-06,
      "longitude_deg": 149.88174188171726,
      "height_km": 331.1707052786656,
      "semi_major_axis_km": 6706.2065357214515,
      "eccentricity": 0.00016955,
      "inclination_deg": 97.2849,
      "raan_deg": 304.4913,
      "arg_perigee_deg": 86.3703,
      "mean_anomaly_deg": 273.7759,
      "mean_motion_rev_day": 15.8083803
    }
  ]
}