STARLINK-37186          
1 68617U 26073R   26106.86002190  .00019623  00000+0  10285-3 0  9996
2 68617  97.2849 304.4913 0001695  86.3703 273.7759 15.80838030  1569
